[{"OBJECT_NAME":"QIANFAN-27","OBJECT_ID":"2024-185J","EPOCH":"2026-03-09T22:56:55.395744","MEAN_MOTION":14.27448593,"ECCENTRICITY":0.00081881,"INCLINATION":88.9753,"RA_OF_ASC_NODE":66.6975,"ARG_OF_PERICENTER":20.0445,"MEAN_ANOMALY":340.107,"EPHEMERIS_TYPE":0,"CLASSIFICATION_TYPE":"U","NORAD_CAT_ID":61560,"ELEMENT_SET_NO":999,"REV_AT_EPOCH":8260,"BSTAR":0.00025107237,"MEAN_MOTION_DOT":6.31e-6,"MEAN_MOTION_DDOT":0},{"OBJECT_NAME":"FENGYUN 1C DEB","OBJECT_ID":"1999-025DQZ","EPOCH":"2026-03-02T17:32:13.981632","MEAN_MOTION":14.02397544,"ECCENTRICITY":0.01383333,"INCLINATION":98.6337,"RA_OF_ASC_NODE":351.606,"ARG_OF_PERICENTER":344.0442,"MEAN_ANOMALY":15.6389,"EPHEMERIS_TYPE":0,"CLASSIFICATION_TYPE":"U","NORAD_CAT_ID":35241,"ELEMENT_SET_NO":999,"REV_AT_EPOCH":88727,"BSTAR":0.0021959187,"MEAN_MOTION_DOT":3.628e-5,"MEAN_MOTION_DDOT":0}]
